CCSDS_OMM_VERS = 2.0
CREATION_DATE  = 
ORIGINATOR     = 

OBJECT_NAME    = CZ-2C R/B
OBJECT_ID      = 2022-132E
CENTER_NAME    = EARTH
REF_FRAME      = TEME
TIME_SYSTEM    = UTC
MEAN_ELEMENT_THEORY = SGP/SGP4

EPOCH          = 2026-02-04T12:52:29.801856
MEAN_MOTION    = 15.58975514
ECCENTRICITY   = .0017564
INCLINATION    = 97.2956
RA_OF_ASC_NODE = 37.9257
ARG_OF_PERICENTER = 205.5504
MEAN_ANOMALY   = 154.4886

EPHEMERIS_TYPE = 0
CLASSIFICATION_TYPE = U
NORAD_CAT_ID   = 54039
ELEMENT_SET_NO = 999
REV_AT_EPOCH   = 18520
BSTAR          = .52459E-3
MEAN_MOTION_DOT = .41084E-3
MEAN_MOTION_DDOT = 0

CCSDS_OMM_VERS = 2.0
CREATION_DATE  = 
ORIGINATOR     = 

OBJECT_NAME    = GSLV R/B
OBJECT_ID      = 2022-138AN
CENTER_NAME    = EARTH
REF_FRAME      = TEME
TIME_SYSTEM    = UTC
MEAN_ELEMENT_THEORY = SGP/SGP4

EPOCH          = 2026-02-04T19:47:59.476416
MEAN_MOTION    = 14.96517872
ECCENTRICITY   = .0019316
INCLINATION    = 87.3863
RA_OF_ASC_NODE = 177.3599
ARG_OF_PERICENTER = 271.1414
MEAN_ANOMALY   = 88.7604

EPHEMERIS_TYPE = 0
CLASSIFICATION_TYPE = U
NORAD_CAT_ID   = 54149
ELEMENT_SET_NO = 999
REV_AT_EPOCH   = 17901
BSTAR          = .34947E-3
MEAN_MOTION_DOT = .4012E-4
MEAN_MOTION_DDOT = 0

CCSDS_OMM_VERS = 2.0
CREATION_DATE  = 
ORIGINATOR     = 

OBJECT_NAME    = XRISM
OBJECT_ID      = 2023-137A
CENTER_NAME    = EARTH
REF_FRAME      = TEME
TIME_SYSTEM    = UTC
MEAN_ELEMENT_THEORY = SGP/SGP4

EPOCH          = 2026-02-04T06:53:28.566816
MEAN_MOTION    = 15.11070694
ECCENTRICITY   = .000799
INCLINATION    = 31.0020
RA_OF_ASC_NODE = 139.6374
ARG_OF_PERICENTER = 64.7958
MEAN_ANOMALY   = 295.3508

EPHEMERIS_TYPE = 0
CLASSIFICATION_TYPE = U
NORAD_CAT_ID   = 57800
ELEMENT_SET_NO = 999
REV_AT_EPOCH   = 13273
BSTAR          = .41053E-3
MEAN_MOTION_DOT = .7142E-4
MEAN_MOTION_DDOT = 0

CCSDS_OMM_VERS = 2.0
CREATION_DATE  = 
ORIGINATOR     = 

OBJECT_NAME    = ACS3
OBJECT_ID      = 2024-077B
CENTER_NAME    = EARTH
REF_FRAME      = TEME
TIME_SYSTEM    = UTC
MEAN_ELEMENT_THEORY = SGP/SGP4

EPOCH          = 2026-02-04T17:15:21.608640
MEAN_MOTION    = 13.88235904
ECCENTRICITY   = .0045566
INCLINATION    = 97.2258
RA_OF_ASC_NODE = 344.2421
ARG_OF_PERICENTER = 181.7267
MEAN_ANOMALY   = 178.3746

EPHEMERIS_TYPE = 0
CLASSIFICATION_TYPE = U
NORAD_CAT_ID   = 59588
ELEMENT_SET_NO = 999
REV_AT_EPOCH   = 8962
BSTAR          = .19632E-1
MEAN_MOTION_DOT = .23705E-3
MEAN_MOTION_DDOT = 0

CCSDS_OMM_VERS = 2.0
CREATION_DATE  = 
ORIGINATOR     = 

OBJECT_NAME    = SZ-21 MODULE
OBJECT_ID      = 2025-246C
CENTER_NAME    = EARTH
REF_FRAME      = TEME
TIME_SYSTEM    = UTC
MEAN_ELEMENT_THEORY = SGP/SGP4

EPOCH          = 2026-02-04T17:55:34.120416
MEAN_MOTION    = 15.66050226
ECCENTRICITY   = .0003162
INCLINATION    = 41.4760
RA_OF_ASC_NODE = 45.7588
ARG_OF_PERICENTER = 275.0689
MEAN_ANOMALY   = 84.9790

EPHEMERIS_TYPE = 0
CLASSIFICATION_TYPE = U
NORAD_CAT_ID   = 66515
ELEMENT_SET_NO = 999
REV_AT_EPOCH   = 1290
BSTAR          = .32974E-3
MEAN_MOTION_DOT = .34575E-3
MEAN_MOTION_DDOT = 0

