CZ-2C R/B               
1 54039U 22132E   26035.53645604  .00041084  00000+0  52459-3 0  9994
2 54039  97.2956  37.9257 0017564 205.5504 154.4886 15.58975514185200
GSLV R/B                
1 54149U 22138AN  26035.82499394  .00004012  00000+0  34947-3 0  9999
2 54149  87.3863 177.3599 0019316 271.1414  88.7604 14.96517872179012
XRISM                   
1 57800U 23137A   26035.28713619  .00007142  00000+0  41053-3 0  9998
2 57800  31.0020 139.6374 0007990  64.7958 295.3508 15.11070694132737
ACS3                    
1 59588U 24077B   26035.71900010  .00023705  00000+0  19632-1 0  9997
2 59588  97.2258 344.2421 0045566 181.7267 178.3746 13.88235904 89622
SZ-21 MODULE            
1 66515U 25246C   26035.74692269  .00034575  00000+0  32974-3 0  9994
2 66515  41.4760  45.7588 0003162 275.0689  84.9790 15.66050226 12905
